GLOBALSTAR M035 [-]     
1 25851U 99037A   24115.56836164 -.00000094  00000+0 -11387-2 0  9997
2 25851  51.9947 268.5160 0013376  27.2301  51.0197 11.04529522 50000
GLOBALSTAR M032 [-]     
1 25852U 99037B   24115.31415399 -.00000060  00000+0  21573-3 0  9995
2 25852  51.9916 123.1809 0009854 181.1930 178.8847 11.19051623 87892
GLOBALSTAR M051 [-]     
1 25853U 99037C   24114.86765948 -.00000051  00000+0  50634-3 0  9993
2 25853  51.9816 332.4415 0001536 156.6382 203.4499 11.42195651 84472
GLOBALSTAR M030 [-]     
1 25854U 99037D   24115.51399359 -.00000005  00000+0  14754-2 0  9997
2 25854  51.9852 163.6108 0003582  19.5409 340.5544 11.55094479101762
GLOBALSTAR M048 [-]     
1 25872U 99041A   24115.54855920 -.00000062  00000+0  23000-3 0  9994
2 25872  51.9367 249.6432 0013898 177.7817 262.5634 11.33845342 77493
GLOBALSTAR M026 [-]     
1 25873U 99041B   24115.22370844 -.00000061  00000+0  11675-3 0  9991
2 25873  52.0049  31.6519 0000972 287.5531 243.2912 11.06835208102090
GLOBALSTAR M043 [-]     
1 25874U 99041C   24115.08151654  .00000008  00000+0  22555-2 0  9990
2 25874  51.9434 341.6938 0012437 320.8861 209.0726 11.25680058 75670
GLOBALSTAR M028 [-]     
1 25875U 99041D   24114.86616512 -.00000052  00000+0  30868-3 0  9992
2 25875  51.9653   3.3755 0062723 240.6299 118.8289 12.50553715137746
